{
    "links": {
        "self": "http://www.neowsapp.com/rest/v1/neo/3802554?api_key=iIulBulltgU6a56xZRHN4H3l9WmuAYTsLGpBGhQ2"
    },
    "id": "3802554",
    "neo_reference_id": "3802554",
    "name": "(2018 EZ9)",
    "designation": "2018 EZ9",
    "nasa_jpl_url": "http://ssd.jpl.nasa.gov/sbdb.cgi?sstr=3802554",
    "absolute_magnitude_h": 27.029,
    "estimated_diameter": {
        "kilometers": {
            "estimated_diameter_min": 0.0104413097,
            "estimated_diameter_max": 0.0233474782
        },
        "meters": {
            "estimated_diameter_min": 10.4413096767,
            "estimated_diameter_max": 23.3474782113
        },
        "miles": {
            "estimated_diameter_min": 0.006487927,
            "estimated_diameter_max": 0.0145074459
        },
        "feet": {
            "estimated_diameter_min": 34.2562664398,
            "estimated_diameter_max": 76.5993404147
        }
    },
    "is_potentially_hazardous_asteroid": false,
    "close_approach_data": [
        {
            "close_approach_date": "2018-03-04",
            "close_approach_date_full": "2018-Mar-04 05:22",
            "epoch_date_close_approach": 1520140920000,
            "relative_velocity": {
                "kilometers_per_second": "6.5423266052",
                "kilometers_per_hour": "23552.3757788934",
                "miles_per_hour": "14634.5303832796"
            },
            "miss_distance": {
                "astronomical": "0.0496479207",
                "lunar": "19.3130411523",
                "kilometers": "7427223.186648909",
                "miles": "4615062.4848925842"
            },
            "orbiting_body": "Earth"
        }
    ],
    "orbital_data": {
        "orbit_id": "5",
        "orbit_determination_date": "2018-04-17 09:52:35",
        "first_observation_date": "2018-03-07",
        "last_observation_date": "2018-03-07",
        "data_arc_in_days": null,
        "observations_used": 7,
        "orbit_uncertainty": "9",
        "minimum_orbit_intersection": ".0493557",
        "jupiter_tisserand_invariant": "5.446",
        "epoch_osculation": "2458184.5",
        "eccentricity": ".09472826413187568",
        "semi_major_axis": "1.148096878396623",
        "inclination": "12.37076247909524",
        "ascending_node_longitude": "163.4117109391408",
        "orbital_period": "449.3308435898872",
        "perihelion_distance": "1.039339654050886",
        "perihelion_argument": "349.3101392325559",
        "aphelion_distance": "1.256854102742361",
        "perihelion_time": "2458170.542269887434",
        "mean_anomaly": "11.18281309241699",
        "mean_motion": ".8011913829992469",
        "equinox": "J2000",
        "orbit_class": {
            "orbit_class_type": "AMO",
            "orbit_class_description": "Near-Earth asteroid orbits similar to that of 1221 Amor",
            "orbit_class_range": "1.017 AU < q (perihelion) < 1.3 AU"
        }
    },
    "is_sentry_object": false
}